[
    {
        "Altitude(m)": 567585.9970701536,
        "Argument of Periapsis(deg)": -0.007534386927657468,
        "Eccentricity": 0.0,
        "Inclination(deg)": 97.0,
        "Latitude(deg)": -6.857638679790693,
        "Longitude(deg)": 50.080350513305994,
        "Mean Anomaly(deg)": -6.736652243604211,
        "RAAN(deg)": 150.00198235120618,
        "Satellite Name": "Starlink Shell 3 1929",
        "Satellite Number": 1929,
        "Semi-Major Axis(m)": 6938478.169268562,
        "Time(s)": 190
    },
    {
        "Altitude(m)": 567460.8622242109,
        "Argument of Periapsis(deg)": -0.007930933608060494,
        "Eccentricity": 0.0,
        "Inclination(deg)": 97.0,
        "Latitude(deg)": -6.233561945889767,
        "Longitude(deg)": 49.96145316062035,
        "Mean Anomaly(deg)": -6.1111760458990885,
        "RAAN(deg)": 150.00208668548018,
        "Satellite Name": "Starlink Shell 3 1929",
        "Satellite Number": 1929,
        "Semi-Major Axis(m)": 6938478.169268562,
        "Time(s)": 200
    },
    {
        "Altitude(m)": 567339.8210796015,
        "Argument of Periapsis(deg)": -0.008327480288463517,
        "Eccentricity": 0.0,
        "Inclination(deg)": 97.0,
        "Latitude(deg)": -5.609440721650894,
        "Longitude(deg)": 49.842735423595094,
        "Mean Anomaly(deg)": -5.485699848194094,
        "RAAN(deg)": 150.0021910197542,
        "Satellite Name": "Starlink Shell 3 1929",
        "Satellite Number": 1929,
        "Semi-Major Axis(m)": 6938478.169268562,
        "Time(s)": 210
    },
    {
        "Altitude(m)": 567222.9030816187,
        "Argument of Periapsis(deg)": -0.008724026968866542,
        "Eccentricity": 0.0,
        "Inclination(deg)": 97.0,
        "Latitude(deg)": -4.985277986501149,
        "Longitude(deg)": 49.72417851403209,
        "Mean Anomaly(deg)": -4.860223650488997,
        "RAAN(deg)": 150.0022953540282,
        "Satellite Name": "Starlink Shell 3 1929",
        "Satellite Number": 1929,
        "Semi-Major Axis(m)": 6938478.169268562,
        "Time(s)": 220
    },
    {
        "Altitude(m)": 567110.1356537903,
        "Argument of Periapsis(deg)": -0.009120573649269567,
        "Eccentricity": 0.0,
        "Inclination(deg)": 97.0,
        "Latitude(deg)": -4.361076721180542,
        "Longitude(deg)": 49.60576379484725,
        "Mean Anomaly(deg)": -4.234747452783976,
        "RAAN(deg)": 150.0023996883022,
        "Satellite Name": "Starlink Shell 3 1929",
        "Satellite Number": 1929,
        "Semi-Major Axis(m)": 6938478.169268562,
        "Time(s)": 230
    },
    {
        "Altitude(m)": 567001.5441872397,
        "Argument of Periapsis(deg)": -0.009517120329672592,
        "Eccentricity": 0.0,
        "Inclination(deg)": 97.0,
        "Latitude(deg)": -3.7368399079071097,
        "Longitude(deg)": 49.48747326655386,
        "Mean Anomaly(deg)": -3.609271255078981,
        "RAAN(deg)": 150.0025040225762,
        "Satellite Name": "Starlink Shell 3 1929",
        "Satellite Number": 1929,
        "Semi-Major Axis(m)": 6938478.169268562,
        "Time(s)": 240
    },
    {
        "Altitude(m)": 566897.1520311866,
        "Argument of Periapsis(deg)": -0.009913667010075618,
        "Eccentricity": 0.0,
        "Inclination(deg)": 97.0,
        "Latitude(deg)": -3.1125705305236684,
        "Longitude(deg)": 49.3692885411378,
        "Mean Anomaly(deg)": -2.983795057373859,
        "RAAN(deg)": 150.00260835685023,
        "Satellite Name": "Starlink Shell 3 1929",
        "Satellite Number": 1929,
        "Semi-Major Axis(m)": 6938478.169268562,
        "Time(s)": 250
    },
    {
        "Altitude(m)": 566796.9804844197,
        "Argument of Periapsis(deg)": -0.010310213690478642,
        "Eccentricity": 0.0,
        "Inclination(deg)": 97.0,
        "Latitude(deg)": -2.488271574623792,
        "Longitude(deg)": 49.25119132903481,
        "Mean Anomaly(deg)": -2.3583188596688642,
        "RAAN(deg)": 150.00271269112426,
        "Satellite Name": "Starlink Shell 3 1929",
        "Satellite Number": 1929,
        "Semi-Major Axis(m)": 6938478.169268562,
        "Time(s)": 260
    },
    {
        "Altitude(m)": 566701.0487878154,
        "Argument of Periapsis(deg)": -0.010706760370881667,
        "Eccentricity": 0.0,
        "Inclination(deg)": 97.0,
        "Latitude(deg)": -1.8639460276607762,
        "Longitude(deg)": 49.13316392630196,
        "Mean Anomaly(deg)": -1.7328426619637674,
        "RAAN(deg)": 150.00281702539826,
        "Satellite Name": "Starlink Shell 3 1929",
        "Satellite Number": 1929,
        "Semi-Major Axis(m)": 6938478.169268562,
        "Time(s)": 270
    },
    {
        "Altitude(m)": 566609.3741179414,
        "Argument of Periapsis(deg)": -0.011103307051284692,
        "Eccentricity": 0.0,
        "Inclination(deg)": 97.0,
        "Latitude(deg)": -1.2395968790468317,
        "Longitude(deg)": 49.01518818907601,
        "Mean Anomaly(deg)": -1.1073664642587469,
        "RAAN(deg)": 150.00292135967229,
        "Satellite Name": "Starlink Shell 3 1929",
        "Satellite Number": 1929,
        "Semi-Major Axis(m)": 6938478.169268562,
        "Time(s)": 280
    },
    {
        "Altitude(m)": 566521.9715816501,
        "Argument of Periapsis(deg)": -0.011499853731687715,
        "Eccentricity": 0.0,
        "Inclination(deg)": 97.0,
        "Latitude(deg)": -0.6152271202379729,
        "Longitude(deg)": 48.89724602103061,
        "Mean Anomaly(deg)": -0.48189026655375194,
        "RAAN(deg)": 150.00302569394628,
        "Satellite Name": "Starlink Shell 3 1929",
        "Satellite Number": 1929,
        "Semi-Major Axis(m)": 6938478.169268562,
        "Time(s)": 290
    },
    {
        "Altitude(m)": 566438.8542117809,
        "Argument of Periapsis(deg)": -0.011896400412090741,
        "Eccentricity": 0.0,
        "Inclination(deg)": 97.0,
        "Latitude(deg)": 0.009160255188142005,
        "Longitude(deg)": 48.779319860926925,
        "Mean Anomaly(deg)": 0.1435859311512685,
        "RAAN(deg)": 150.00313002822026,
        "Satellite Name": "Starlink Shell 3 1929",
        "Satellite Number": 1929,
        "Semi-Major Axis(m)": 6938478.169268562,
        "Time(s)": 300
    },
    {
        "Altitude(m)": 566360.0329638768,
        "Argument of Periapsis(deg)": -0.012292947092493765,
        "Eccentricity": 0.0,
        "Inclination(deg)": 97.0,
        "Latitude(deg)": 0.6335622514583056,
        "Longitude(deg)": 48.661391657350734,
        "Mean Anomaly(deg)": 0.7690621288563907,
        "RAAN(deg)": 150.00323436249428,
        "Satellite Name": "Starlink Shell 3 1929",
        "Satellite Number": 1929,
        "Semi-Major Axis(m)": 6938478.169268562,
        "Time(s)": 310
    },
    {
        "Altitude(m)": 566285.5167139923,
        "Argument of Periapsis(deg)": -0.012689493772896788,
        "Eccentricity": 0.0,
        "Inclination(deg)": 97.0,
        "Latitude(deg)": 1.2579758705346478,
        "Longitude(deg)": 48.54344335634977,
        "Mean Anomaly(deg)": 1.3945383265614875,
        "RAAN(deg)": 150.0033386967683,
        "Satellite Name": "Starlink Shell 3 1929",
        "Satellite Number": 1929,
        "Semi-Major Axis(m)": 6938478.169268562,
        "Time(s)": 320
    },
    {
        "Altitude(m)": 566215.312257516,
        "Argument of Periapsis(deg)": -0.013086040453299813,
        "Eccentricity": 0.0,
        "Inclination(deg)": 97.0,
        "Latitude(deg)": 1.8823981120461726,
        "Longitude(deg)": 48.42545738906547,
        "Mean Anomaly(deg)": 2.0200145242665077,
        "RAAN(deg)": 150.0034430310423,
        "Satellite Name": "Starlink Shell 3 1929",
        "Satellite Number": 1929,
        "Semi-Major Axis(m)": 6938478.169268562,
        "Time(s)": 330
    },
    {
        "Altitude(m)": 566149.4243091064,
        "Argument of Periapsis(deg)": -0.01348258713370284,
        "Eccentricity": 0.0,
        "Inclination(deg)": 97.0,
        "Latitude(deg)": 2.5068259732161677,
        "Longitude(deg)": 48.307415646453364,
        "Mean Anomaly(deg)": 2.645490721971503,
        "RAAN(deg)": 150.0035473653163,
        "Satellite Name": "Starlink Shell 3 1929",
        "Satellite Number": 1929,
        "Semi-Major Axis(m)": 6938478.169268562,
        "Time(s)": 340
    },
    {
        "Altitude(m)": 566087.8555036349,
        "Argument of Periapsis(deg)": -0.013879133814105863,
        "Eccentricity": 0.0,
        "Inclination(deg)": 97.0,
        "Latitude(deg)": 3.1312564487864014,
        "Longitude(deg)": 48.189299966805336,
        "Mean Anomaly(deg)": 3.270966919676498,
        "RAAN(deg)": 150.0036516995903,
        "Satellite Name": "Starlink Shell 3 1929",
        "Satellite Number": 1929,
        "Semi-Major Axis(m)": 6938478.169268562,
        "Time(s)": 350
    },
    {
        "Altitude(m)": 566030.6063982057,
        "Argument of Periapsis(deg)": -0.01427568049450889,
        "Eccentricity": 0.0,
        "Inclination(deg)": 97.0,
        "Latitude(deg)": 3.7556865309343936,
        "Longitude(deg)": 48.0710926231679,
        "Mean Anomaly(deg)": 3.8964431173815184,
        "RAAN(deg)": 150.00375603386433,
        "Satellite Name": "Starlink Shell 3 1929",
        "Satellite Number": 1929,
        "Semi-Major Axis(m)": 6938478.169268562,
        "Time(s)": 360
    },
    {
        "Altitude(m)": 565977.6754752608,
        "Argument of Periapsis(deg)": -0.014672227174911913,
        "Eccentricity": 0.0,
        "Inclination(deg)": 97.0,
        "Latitude(deg)": 4.380113209178608,
        "Longitude(deg)": 47.9527752977491,
        "Mean Anomaly(deg)": 4.521919315086615,
        "RAAN(deg)": 150.00386036813833,
        "Satellite Name": "Starlink Shell 3 1929",
        "Satellite Number": 1929,
        "Semi-Major Axis(m)": 6938478.169268562,
        "Time(s)": 370
    }
]